full_name,a,e,i,om,w,q,ad,per_y,data_arc,condition_code,n_obs_used,n_del_obs_used,n_dop_obs_used,H
"  1027 Aesculapia (A923 YO11)",3.152852410744333,.1299747561698323,1.25360930316764,29.35737788530735,132.1787236718978,2.743061187418371,3.562643634070296,5.59839663677242,40106,0,2368,,,10.8
"  1036 Ganymed (1924 TD)",2.66293707774418,.5335457946765225,26.6933559000825,215.5521932920582,132.4535325817723,1.242138198425585,4.083735957062776,4.34559810877033,34159,0,5547,0,1,9.45
"  1039 Sonneberga (1924 TL)",2.679774318512472,.05926108240173368,4.555735048340204,221.7303782802678,327.6734885922726,2.520967991805055,2.83858064521989,4.38687776420275,34032,0,2140,,,11.4
"  1043 Beate (1925 HB)",3.095414050683468,.03957130635179295,8.920048042124236,159.2430601443104,155.2834629868188,2.972924472998228,3.217903628368708,5.44610896851828,33677,0,2198,,,9.6
"  1054 Forsytia (1925 WD)",2.926343840548185,.1343769929769232,10.85615179794607,85.81471925760327,294.4905123709572,2.533110554838779,3.31957712625759,5.00606210063979,40501,0,2309,,,10.4
"  1057 Wanda (1925 QB)",2.895493448970389,.2463844091863965,3.538825893430961,257.891803395087,114.508260969961,2.182089006242738,3.608897891698039,4.92710800417699,33558,0,2292,,,10.96
"  1069 Planckia (1927 BC)",3.126093623141095,.1104547181559246,13.56328049603014,142.3806277085905,31.72370740180627,2.780801833068012,3.471385413214177,5.52727627740839,33147,0,2359,,,9.4
"  1070 Tunica (1926 RB)",3.231057184068412,.07925090736827384,16.96315253355344,165.3065708167503,190.106460405429,2.97499297047221,3.487121397664613,5.80798075676713,41649,0,1890,,,10.7
"  1074 Beljawskya (1925 BE)",3.150006291108695,.1791684463510869,.8004921356214082,38.12103498172053,22.84861497883763,2.585624557934601,3.71438802428279,5.59081773293075,33708,0,2191,,,10.2
"  1081 Reseda (1927 QF)",3.101771040679523,.146582408885848,4.195452042726465,30.4214081944221,8.070382088379572,2.647105969724355,3.556436111634691,5.46289442692191,32816,0,2316,,,11.0
"  1082 Pirola (1927 UC)",3.120149297279718,.1812088704578776,1.852435579344754,148.0099892319482,187.1818541041545,2.55475056745972,3.685548027099716,5.51151844449552,32994,0,2886,,,10.41
"  1087 Arabis (1927 RD)",3.01359305177111,.09414735207532859,10.06076075168202,30.42363493099053,25.71985994464291,2.729871245714251,3.297314857827969,5.23160698644188,33080,0,1962,,,9.73
"  1092 Lilium (1924 PN)",2.899366025470231,.08450794355090158,5.389089801338995,307.4886281808837,316.5483923520938,2.654346565056391,3.144385485884071,4.9369959462947,40780,0,2567,,,10.82
"  1096 Reunerta (1928 OB)",2.600756372277947,.1940005955160315,9.471922884402856,81.34595407961157,247.9628012234376,2.096208087263912,3.105304657291982,4.19428279683237,32757,0,1823,,,10.7
"  1101 Clematis (1928 SJ)",3.229574302571421,.07855336051119534,21.42429503712892,201.9807203008239,107.4678753040478,2.975880388083836,3.483268217059007,5.8039828892927,32629,0,1913,,,10.5
"  1102 Pepita (1928 VA)",3.069158005828093,.1105854505136721,15.82861368484764,216.5868713872134,116.9178454102437,2.72975378505595,3.408562226600235,5.3769633115137,31499,0,1838,,,9.40
"  1105 Fragaria (1929 AB)",3.010143553553362,.1058639661412311,10.96783243052553,116.9044950881798,225.0135924615669,2.691477818319744,3.328809288786981,5.2226270477997,32616,0,2018,,,10.09
"  1112 Polonia (1928 PE)",3.019323884347298,.1069829564046869,8.991118388009562,302.862023286717,87.36092518394607,2.696307688856541,3.342340079838055,5.24653719385191,32582,0,1866,,,10.05
"  1113 Katja (1928 QC)",3.110537417974797,.1420606452149382,13.28109832888399,324.5347333870326,119.1453519626999,2.668652465412089,3.552422370537505,5.48607003252303,39831,0,1693,,,9.3
"  1116 Catriona (1929 GD)",2.922802328555214,.2294470458961549,16.52290682868081,356.516614781898,82.66099316545356,2.252173968529818,3.593430688580611,4.99697721612734,40260,0,1618,,,9.8
"  1127 Mimi (1929 AJ)",2.59731181056859,.2639911854001974,14.74088697981499,128.5163290010851,282.1901273057534,1.911644386842655,3.282979234294525,4.18595290405864,32020,0,1892,,,10.95
"  1128 Astrid (1929 EB)",2.788961133923805,.04615271885240185,1.013848747094111,59.44629308756108,233.6325732759279,2.660242994819543,2.917679273028066,4.65770410779626,35692,0,2702,,,10.9
"  1129 Neujmina (1929 PH)",3.021411800784326,.08270560471278045,8.619574199591899,269.2194936886152,139.8507341724234,2.771524110714127,3.271299490854525,5.25198024595146,33384,0,1674,,,10.20
"  1146 Biarmia (1929 JF)",3.043973615122911,.2553200543996689,17.06727674175319,213.8921380059502,63.80899594820089,2.266786106118572,3.821161124127249,5.31091716586113,32404,0,1958,,,9.80
"  1163 Saga (1930 BA)",3.222387317729587,.04414264843454563,9.013616115952642,127.5992245316192,197.7216849265097,3.080142607243111,3.364632028216062,5.78461969257784,32192,0,1991,,,10.6
"  1186 Turnera (1929 PL)",3.022651527021262,.1009754077201822,10.75165112199902,42.98755693782248,295.4851382010755,2.717438056684259,3.327864997358265,5.25521301558707,32146,0,2328,,,9.20
"  1187 Afra (1929 XC)",2.640987453096187,.2221497266864028,10.69368032104625,327.1978932906488,74.81960556049511,2.05429281220865,3.227682093983724,4.29198019406935,31958,0,1537,,,11.5
"  1191 Alfaterna (1931 CA)",2.892813389377089,.04692877897896269,18.49008733234369,134.7180953934866,53.50707336715283,2.757057189199628,3.02856958955455,4.92026881395524,31764,0,1508,,,10.8
"  1194 Aletta (1931 JG)",2.914039968591964,.09168928582039626,10.8680867079744,291.3030843986587,243.2918958446958,2.646853725019677,3.181226212164251,4.97452317608744,31656,0,1659,,,10.7
"  1197 Rhodesia (1931 LD)",2.886287420624789,.2303330729814249,12.98520926225816,255.7367416358661,277.1627105903468,2.221479969524651,3.551094871724926,4.90362857473063,34007,0,1840,,,10.2
"  1199 Geldonia (1931 RF)",3.017929434391801,.02793195625335492,8.791715392892169,235.6283581073927,291.5365305715205,2.933632761454657,3.102226107328945,5.24290300832273,35208,0,2087,,,10.36
"  1200 Imperatrix (1931 RH)",3.065449472704943,.1050718005480311,4.593584402035147,204.7711736528414,51.62970026863152,2.743357177118822,3.387541768291064,5.36722059627673,37402,0,2273,,,10.9
"  1201 Strenua (1931 RK)",2.698686273636755,.0401077368547316,7.006540674429057,203.1467555512184,163.6864408068093,2.590448074720256,2.806924472553253,4.43339883086012,40509,0,2052,,,11.4
"  1203 Nanna (1931 TA)",2.88831560933325,.2485144756802162,5.994086507928822,224.5350401675847,176.8795819520273,2.170527370080813,3.606103848585686,4.90879813840523,33144,0,1838,,,11.6
"  1210 Morosovia (1931 LB)",3.010033284476513,.06056426418889988,11.27183203017264,106.6200271974607,169.128125822689,2.827732833418095,3.192333735534931,5.22234007361779,41581,0,1835,,,9.91
"  1211 Bressole (1931 XA)",2.927019269675323,.1610664829826956,12.76354701180807,129.7602678456387,211.9007179033183,2.455574570286141,3.398463969064506,5.00779537367829,31523,0,1895,,,11.0
"  1214 Richilde (1932 AA)",2.711216815166444,.1184420305579039,9.833379186158741,285.8993627983291,32.43666687452112,2.390094790295398,3.032338840037491,4.46431238574103,31965,0,2059,,,11.1
"  1227 Geranium (1931 TD)",3.219372499595971,.1918316187240283,16.49044003302252,.7013019199580902,302.8619146198525,2.601795061722855,3.836949937469087,5.77650358411363,31463,0,1886,,,10.8
"  1232 Cortusa (1931 TF2)",3.183636423089473,.1345337181245628,10.36037020745568,261.2109868440003,340.2662390469469,2.755329977934463,3.611942868244483,5.68058940315557,32026,0,2029,,,10.3
"  1233 Kobresia (1931 TG2)",2.555822655295399,.0555180822814921,5.602805829425225,291.4194625894795,335.0628707620812,2.413928282821808,2.697717027768991,4.08605563390712,33019,0,2255,,,11.4
"  1237 Genevieve (1931 XB)",2.61391422678552,.07657949515928171,9.736274707917174,57.85985297929926,305.9872512632102,2.41374199490862,2.814086458662419,4.22615285588622,40083,0,2017,,,10.8
"  1242 Zambesia (1932 HL)",2.739697902430587,.1890274168580614,10.14652830551514,349.9341625606294,53.29197309957414,2.221819884962684,3.25757591989849,4.5348426039645,39966,0,1854,,,10.4
"  1247 Memoria (1932 QA)",3.13149467269709,.1748714208322784,1.778005247241266,161.7260289730827,139.4070834861075,2.583885749953839,3.679103595440341,5.54160693453386,40972,0,2567,,,10.52
"  1255 Schilowa (1932 NC)",3.145002314570662,.1733361290240071,8.547144769678685,237.62280266256,133.6462943580308,2.599859787591441,3.690144841549883,5.57750099414619,41063,0,2215,,,10.3
"  1258 Sicilia (1932 PG)",3.185672019456856,.04305296148382411,7.701378173577859,299.6103919880767,77.69755483752967,3.048519404703083,3.322824634210628,5.68603847167739,31128,0,1759,,,10.7
"  1259 Ogyalla (1933 BT)",3.103771591983218,.1278149603456817,2.381041447856953,74.99960842076023,149.9723448681662,2.70706314903183,3.500480034934606,5.468180388921,32760,0,2603,,,10.6
"  1261 Legia (1933 FB)",3.136346269023596,.1789650382878331,2.427406733537814,67.28082899717357,104.5333902713481,2.575049938903886,3.697642599143307,5.5544902634502,30785,0,2213,,,11.2
"  1263 Varsavia (1933 FF)",2.664758876719208,.1886690639434856,29.27190243614406,158.480238020606,287.4276340352923,2.162001313813501,3.167516439624916,4.3500583118256,30928,0,1595,,,10.2
"  1271 Isergina (1931 TN)",3.147428099257365,.1192985267289419,6.668121051625189,127.018093459804,270.1803188826356,2.771944564030687,3.522911634484042,5.58395524620109,40821,0,2150,,,10.3
"  1276 Ucclia (1933 BA)",3.17682564019661,.09397139946302444,23.27580296830906,114.4606735542719,333.7035741283996,2.878294888937316,3.475356391455903,5.66237034959599,31079,0,1493,,,10.8
"  1277 Dolores (1933 HA)",2.699792106920921,.2370791320852245,6.968561170608063,247.0407718581258,47.02614937806234,2.059727737401569,3.339856476440273,4.43612410254175,30699,0,2270,,,11.05
"  1284 Latvia (1933 OP)",2.647842938021549,.1703533738256214,10.8703392152008,302.8093580291315,114.9279646976833,2.196773960169232,3.098911915873865,4.30870274137384,30893,0,1791,,,10.24
